C/2022 R6 (PANSTARRS),h,08/26.1005/2025,57.0188,150.7861,319.9067,1.004996,6.565609,2000,5.0,4.0
# From MPEC 2023-HD1
P/2022 S1 (PANSTARRS),e,34.5678,136.0906,262.8443,6.408968,0.0607466,0.50768013,59.4048,04/23.0/2025,2000,g 15.1,4.0
# From MPEC 2022-VC5
C/2022 S3 (PANSTARRS),h,01/21.6439/2023,78.4882,157.2585,267.9833,1.000389,0.838666,2000,17.0,4.0
# From MPEC 2024-PC5
C/2022 S4 (Lemmon),e,101.2168,220.1780,268.5617,1398,0.0000189,0.99802422,0.0000,07/18.7778/2024,2000,g  8.0,4.0
# From MPEC 2023-HD1
C/2022 S5 (PANSTARRS),e,136.5147,214.8649,232.8027,20.51753,0.0106051,0.89383728,9.3033,04/23.0/2025,2000,g 16.3,4.0
# From MPEC 2024-O39
C/2022 T1 (Lemmon),h,02/17.4371/2024,22.5426,236.9165,324.2936,1.000333,3.444404,2000,9.0,4.0
# From MPEC 2025-H10
C/2022 U1 (Leonard),h,03/26.0708/2024,128.1484,72.5273,78.6107,1.000129,4.202254,2000,8.5,4.0
# From MPEC 2023-VM5
C/2022 U2 (ATLAS),e,48.2489,304.4094,148.0007,98.14089,0.0010137,0.98645421,0.0000,01/14.2744/2023,2000,g 16.0,4.0
# From MPC182880
C/2022 U3 (Bok),h,07/28.6651/2024,33.6618,272.7882,189.1306,1.000372,4.826714,2000,7.5,4.0
# From MPEC 2023-W26
C/2022 U4 (Bok),e,52.0515,132.9161,88.9882,2860,0.0000064,0.99898676,0.0000,08/03.6365/2023,2000,g 10.5,4.0
# From MPEC 2024-H50
C/2022 V2 (Lemmon),e,98.9017,332.8575,168.9532,36.65699,0.0044409,0.94369207,2.3898,04/23.0/2025,2000,g 12.0,4.0
# From MPEC 2023-CD7
P/2022 W1 (Rankin),e,13.4644,38.8278,17.9242,6.975126,0.0535027,0.51651866,50.8196,04/23.0/2025,2000,g 12.5,4.0
# From MPEC 2024-EF7
C/2022 W2 (ATLAS),e,63.5041,320.4385,123.3103,343.3008,0.0001550,0.99089838,0.0000,03/08.7544/2023,2000,g 11.5,4.0
# From MPEC 2024-C04
C/2022 W3 (Leonard),e,103.5796,132.2991,116.5154,278.2279,0.0002124,0.99497865,0.0000,06/22.8115/2023,2000,g 13.0,4.0
# From MPEC 2023-M14
C/2022 Y1 (Hogan),e,18.8556,285.8785,174.8716,12.61172,0.0220061,0.76528320,19.3069,04/23.0/2025,2000,g  9.0,4.0
# From MPEC 2023-TM6
C/2022 Y2 (Lemmon),e,165.8887,216.3626,105.4572,19.71406,0.0112600,0.87107087,8.5870,04/23.0/2025,2000,g 13.5,4.0
# From MPEC 2024-GJ3
C/2023 A1 (Leonard),e,94.7405,318.2703,159.2600,221.2272,0.0002995,0.99170161,0.0000,03/18.6049/2023,2000,g 14.5,4.0
# From MPEC 2023-J95
C/2023 A2 (SWAN),e,94.7066,94.5074,142.5011,410.6029,0.0001185,0.99769783,0.0000,01/20.3669/2023,2000,g 13.5,4.0
# From MPC182880
C/2023 A3 (Tsuchinshan-ATLAS),h,09/27.7428/2024,139.1113,21.5692,308.5033,1.000114,0.391490,2000,6.5,3.2
# From MPEC 2024-F34
P/2023 B1 (PANSTARRS),e,14.5884,78.5596,81.6838,7.065039,0.0524846,0.13085862,37.8210,04/23.0/2025,2000,g  5.5,4.0
# From MPEC 2023-XP6
C/2023 B2 (ATLAS),e,40.7672,218.0953,317.3626,595.3672,0.0000678,0.99707602,0.0000,03/10.5864/2023,2000,g 14.5,4.0
# From MPEC 2023-F81
P/2023 B3 (PANSTARRS),e,9.1568,153.9878,240.3705,4.550041,0.1015503,0.12244265,171.6187,04/23.0/2025,2000,g 10.5,4.0
# From MPEC 2025-H10
C/2023 C2 (ATLAS),e,48.3215,301.0045,357.4492,2494,0.0000079,0.99905045,0.0000,11/16.7930/2024,2000,g  7.0,4.0
# From MPEC 2024-D33
C/2023 E1 (ATLAS),e,38.2808,164.5174,105.9549,19.26541,0.0116557,0.94666403,7.7173,04/23.0/2025,2000,g 15.5,4.0
# From MPEC 2023-N01
C/2023 F1 (PANSTARRS),e,131.6934,25.3078,216.7338,247.3825,0.0002533,0.99308717,0.0000,06/28.1360/2023,2000,g 16.0,4.0
# From MPEC 2025-H10
C/2023 F3 (ATLAS),h,02/02.6280/2025,145.9637,109.4648,265.5322,1.003514,5.190766,2000,6.0,4.0
# From MPEC 2025-H10
C/2023 H1 (PANSTARRS),e,21.7825,292.6468,333.7546,760.7994,0.0000470,0.99415400,0.0000,11/28.6574/2024,2000,g  8.5,4.0
# From MPEC 2024-GJ3
C/2023 H2 (Lemmon),e,113.7491,217.0673,150.6820,246.8321,0.0002542,0.99637338,0.0000,10/29.1620/2023,2000,g 14.0,4.0
# From MPEC 2023-R20
C/2023 H3 (PANSTARRS),e,2.4889,55.0919,193.2710,13.61625,0.0196163,0.61575461,8.4271,04/23.0/2025,2000,g 10.0,4.0
# From MPEC 2023-SQ0
A/2023 H4,e,76.5718,230.8263,65.0186,142.9482,0.0005767,0.98514197,0.0000,08/08.7557/2023,2000,g 18.0,2.0
# From MPC182880
C/2023 H5 (Lemmon),h,06/30.2531/2025,97.8554,159.4786,60.0955,1.000466,4.312625,2000,7.0,4.0
# From MPEC 2024-UA9
P/2023 JN16 (Lemmon),e,3.7024,11.8750,353.1790,2.695572,0.2227038,0.14685087,25.2353,04/23.0/2025,2000,g 14.0,4.0
# From MPEC 2024-GJ3
C/2023 K1 (ATLAS),e,137.9976,223.6985,337.4220,634.9902,0.0000616,0.99678935,0.0000,09/07.6059/2023,2000,g 13.0,4.0
# From MPEC 2023-N01
P/2023 M1 (PANSTARRS),e,12.2890,216.8598,79.6978,6.841738,0.0550750,0.58686882,27.2983,04/23.0/2025,2000,g 13.5,4.0
# From MPEC 2024-TD8
P/2023 M2 (PANSTARRS),e,19.7281,83.2492,243.4162,5.578444,0.0748057,0.37002664,47.5556,04/23.0/2025,2000,g 12.5,4.0
# From MPEC 2024-TP3
P/2023 M4 (ATLAS),e,7.5920,296.2860,320.5370,5.446940,0.0775310,0.27893136,85.6883,04/23.0/2025,2000,g  7.5,4.0
# From MPEC 2024-MB8
C/2023 P1 (Nishimura),e,132.4777,66.8341,116.2579,56.50303,0.0023206,0.99602697,0.0000,09/17.6301/2023,2000,g 10.0,4.0
# From MPC182880
C/2023 Q1 (PANSTARRS),h,12/01.1393/2024,36.6438,7.1247,84.4203,1.005009,2.575730,2000,10.0,4.0
# From MPEC 2024-N80
C/2023 Q2 (PANSTARRS),e,104.0618,92.6796,171.6950,346.3393,0.0001529,0.99073392,0.0000,06/23.9633/2024,2000,g 11.5,4.0
# From MPC182880
C/2023 R1 (PANSTARRS),h,04/13.4997/2026,149.3169,62.5611,144.2754,1.002148,3.569751,2000,6.0,4.0
# From MPEC 2024-L77
C/2023 R2 (PANSTARRS),h,08/12.1559/2024,30.6890,188.9027,337.3109,1.000274,0.905125,2000,10.5,4.0
# From MPEC 2023-UR6
A/2023 R3,e,12.0816,347.3434,86.9357,712.9952,0.0000518,0.99809466,0.0000,12/18.1850/2023,2000,g 20.0,2.0
# From MPEC 2024-YC7
C/2023 RN3 (ATLAS),e,10.3520,207.0655,130.5953,10.17005,0.0303892,0.49068453,25.0265,04/23.0/2025,2000,g  7.5,4.0
# From MPEC 2025-H10
P/2023 S1 (PANSTARRS),e,9.1577,317.2902,180.3034,3.844099,0.1307712,0.31851553,7.5629,04/23.0/2025,2000,g 11.5,4.0
# From MPEC 2023-XP6
C/2023 S2 (ATLAS),e,19.6815,229.5108,78.9064,170.9565,0.0004409,0.99379407,0.0000,10/15.5321/2023,2000,g 15.0,4.0
# From MPEC 2024-P23
C/2023 S3 (Lemmon),e,140.4943,233.8257,281.5392,28.44125,0.0064980,0.97083641,0.0000,01/19.6475/2024,2000,g 16.0,4.0
# From MPEC 2024-BE0
P/2023 T1 (PANSTARRS),e,6.6123,249.5767,202.8606,4.225825,0.1134584,0.33325622,38.0247,04/23.0/2025,2000,g 14.0,4.0
# From MPEC 2024-GJ3
C/2023 T2 (Borisov),e,48.5922,317.5283,111.2127,224.5304,0.0002929,0.99110977,0.0000,12/22.7612/2023,2000,g 14.5,4.0
# From MPEC 2025-H10
C/2023 T3 (Fuls),e,27.2216,246.0016,302.8466,843.6207,0.0000402,0.99579393,0.0000,01/25.3463/2025,2000,g  8.5,4.0
# From MPEC 2024-VB7
C/2023 TD22 (Lemmon),e,170.4899,5.5622,32.5404,48.34614,0.0029320,0.95125285,0.6412,04/23.0/2025,2000,g 12.5,4.0
# From MPEC 2025-GB9
C/2023 U1 (Fuls),e,108.1457,305.8049,255.6407,2512,0.0000078,0.99801998,0.0000,10/12.8876/2024,2000,g  8.0,4.0
# From MPEC 2024-YC7
C/2023 V1 (Lemmon),h,07/13.0389/2025,102.0139,15.0404,103.3144,1.000364,5.092552,2000,8.5,4.0
# From MPEC 2025-GB9
P/2023 V2 (PANSTARRS),e,9.8884,95.4743,330.5233,7.221513,0.0507881,0.57015248,22.5642,04/23.0/2025,2000,g 13.5,4.0
# From MPEC 2024-A43
C/2023 V3 (PANSTARRS),e,40.6945,91.2922,291.8800,12.97759,0.0210820,0.65436303,13.2140,04/23.0/2025,2000,g 11.5,4.0
# From MPEC 2024-UQ8
C/2023 V4 (Camarasa-Duszanowicz),h,05/30.3853/2024,67.1270,66.3267,50.8677,1.001136,1.121871,2000,12.0,4.0
# From MPEC 2024-GJ3
C/2023 V5 (Leonard),h,12/13.9016/2023,73.5559,31.5168,56.9672,1.009415,0.846303,2000,21.5,4.0
# From MPEC 2025-A40
P/2023 V6 (PANSTARRS),e,3.9714,189.6939,192.6914,5.299534,0.0807881,0.17571304,70.3669,04/23.0/2025,2000,g 11.5,4.0
# From MPEC 2024-GJ3
C/2023 X1 (Leonard),e,110.5879,136.9967,321.4672,156.1435,0.0005051,0.99390984,0.0000,10/17.9945/2023,2000,g 13.5,3.2
# From MPEC 2025-GB9
C/2023 X2 (Lemmon),h,12/28.0622/2025,76.9848,66.3052,64.7513,1.000252,5.089037,2000,8.5,3.2
# From MPEC 2024-A43
P/2023 X3 (PANSTARRS),e,4.4833,62.0131,40.8603,4.245734,0.1126613,0.28620066,41.2206,04/23.0/2025,2000,g 15.5,4.0
# From MPEC 2025-H10
C/2023 X4 (Hogan),e,11.5938,28.7689,100.5853,9.920445,0.0315433,0.63123698,10.5033,04/23.0/2025,2000,g 12.0,4.0
# From MPEC 2024-DA2
C/2023 X7 (PANSTARRS),h,05/15.1682/2025,69.0779,119.1992,354.3929,1.002743,4.820337,2000,9.0,4.0
# From MPEC 2024-JU4
P/2023 Y1 (Gibbs),e,6.3840,78.8560,51.4738,3.750183,0.1357142,0.44534709,69.2280,04/23.0/2025,2000,g 17.0,4.0
# From MPEC 2025-A40
P/2023 Y2 (Gibbs),e,6.9927,79.2286,16.8938,3.747064,0.1358837,0.39228560,84.5076,04/23.0/2025,2000,g 15.5,4.0
# From MPEC 2025-H10
C/2024 A1 (ATLAS),h,06/13.7228/2025,94.4552,112.1372,353.3138,1.002084,3.875284,2000,7.0,4.0
# From MPC182881
C/2024 A2 (ATLAS),e,119.1157,78.1662,295.5077,32.35897,0.0053544,0.94191155,1.9231,04/23.0/2025,2000,g 12.5,4.0
# From MPEC 2025-H10
C/2024 B1 (Lemmon),h,10/07.7143/2024,70.9032,79.1883,66.2151,1.000987,1.633778,2000,13.0,4.0
# From MPEC 2025-A40
C/2024 B2 (Lemmon),e,99.8631,294.3832,130.3430,2401,0.0000084,0.99830144,0.0000,10/05.9706/2023,2000,g 11.5,4.0
# From MPEC 2025-H10
C/2024 C1 (PANSTARRS),e,14.2269,83.8096,94.4846,10.57938,0.0286427,0.58288274,6.7304,04/23.0/2025,2000,g 11.5,4.0
# From MPEC 2024-JU4
C/2024 C2 (PANSTARRS),e,27.2844,66.4445,87.5636,16.22255,0.0150843,0.44574970,0.6491,04/23.0/2025,2000,g  6.0,4.0
# From MPEC 2025-GB9
C/2024 C3 (PANSTARRS),e,22.4561,359.7070,159.6785,11.66523,0.0247380,0.42453760,13.1464,04/23.0/2025,2000,g  9.0,4.0
# From MPEC 2024-Q20
C/2024 C4 (ATLAS),e,79.2836,220.6746,321.5023,83.54678,0.0012907,0.98239728,0.0000,01/30.1913/2024,2000,g 14.5,4.0
# From MPC182881
A/2024 D1,e,132.4506,179.6638,125.7706,8355,0.0000013,0.99919882,0.0000,12/03.3707/2027,2000,g 11.0,2.0
# From MPC182881
C/2024 E1 (Wierzchos),h,01/20.7711/2026,75.2387,108.0810,243.6362,1.000054,0.565938,2000,7.0,4.0
# From MPEC 2024-JU4
C/2024 E2 (Bok),e,155.6480,135.6514,358.1123,51.55635,0.0026624,0.85076282,1.4540,04/23.0/2025,2000,g  8.0,4.0
# From MPEC 2024-JU4
P/2024 F1 (PANSTARRS),e,7.0053,251.5414,229.5723,3.443904,0.1542153,0.45997082,84.0850,04/23.0/2025,2000,g 16.0,4.0
# From MPEC 2024-Q20
